INTELSAT 902 (IS-902)   
1 26900U 01039A   26166.53430017 -.00000285  00000+0  00000+0 0  9998
2 26900   6.1131  71.8047 0004468   9.1703 325.0843  1.00270585 90675
INTELSAT 904 (IS-904)   
1 27380U 02007A   26166.46673837 -.00000228  00000+0  00000+0 0  9995
2 27380   6.9160  69.2048 0006458   4.1920 326.8891  1.00270887 51749
DIRECTV 5 (TEMPO 1)     
1 27426U 02023A   26166.66498483 -.00000059  00000+0  00000+0 0  9990
2 27426   4.8742  75.3290 0003243  23.3873 294.5201  1.00271501 88109
INTELSAT 905 (IS-905)   
1 27438U 02027A   26166.62259894  .00000091  00000+0  00000+0 0  9999
2 27438   6.7499  69.8186 0003728  20.5742 260.4291  1.00270769 51348
GALAXY 3C (G-3C)        
1 27445U 02030A   26166.60618170 -.00000153  00000+0  00000+0 0  9995
2 27445   3.7279  77.9970 0001525  33.1549 276.1114  1.00271071 46471
INTELSAT 906 (IS-906)   
1 27513U 02041A   26166.75600426  .00000010  00000+0  00000+0 0  9995
2 27513   5.7992  72.9400 0004624   5.6575 161.7403  1.00272666 87016
GALAXY 13 (HORIZONS-1)  
1 27954U 03044A   26166.65709811  .00000134  00000+0  00000+0 0  9992
2 27954   1.4155  83.8849 0002277 351.0610 275.5383  1.00270330 46558
INTELSAT 10-02          
1 28358U 04022A   26166.68656492 -.00000009  00000+0  00000+0 0  9999
2 28358   0.0116 317.0110 0000298 255.8494 297.2601  1.00272857 80541
DIRECTV 8               
1 28659U 05019A   26166.66316481  .00000003  00000+0  00000+0 0  9992
2 28659   0.0172 322.4437 0002762 126.4733 294.7110  1.00271484 77050
GALAXY 28 (G-28)        
1 28702U 05022A   26166.82403733 -.00000201  00000+0  00000+0 0  9991
2 28702   3.2952  78.9509 0002869   5.2495  89.4539  1.00270854 51966
GALAXY 16 (G-16)        
1 29236U 06023A   26166.66715150 -.00000125  00000+0  00000+0 0  9992
2 29236   0.0072 273.9189 0002456 181.8780 309.3145  1.00270263 72951
DIRECTV 9S              
1 29494U 06043A   26166.66671817 -.00000113  00000+0  00000+0 0  9998
2 29494   2.4172  80.9199 0004840  11.9803 309.8735  1.00270799 51365
GALAXY 17 (G-17)        
1 31307U 07016B   26166.38473480 -.00000205  00000+0  00000+0 0  9992
2 31307   2.9676  79.9207 0004410  19.1380 218.0942  1.00269116 69783
INTELSAT 11 (IS-11)     
1 32253U 07044B   26166.78417049 -.00000265  00000+0  00000+0 0  9993
2 32253   3.5621  78.6853 0002278  91.1152 148.5980  0.99051419 68433
HORIZONS-2              
1 32388U 07063B   26166.81476396 -.00000254  00000+0  00000+0 0  9995
2 32388   2.5989  80.6423 0003713   1.3773  41.5895  1.00268830 67808
DIRECTV 11              
1 32729U 08013A   26165.95419218 -.00000120  00000+0  00000+0 0  9996
2 32729   0.0094 269.4466 0000494  94.4042 143.7272  1.00270145 45572
GALAXY 18 (G-18)        
1 32951U 08024A   26166.66238481  .00000027  00000+0  00000+0 0  9990
2 32951   0.0165  10.9740 0002690  73.7534 294.6720  1.00271949 45834
INTELSAT 25 (IS-25)     
1 33153U 08034A   26166.85457163 -.00000246  00000+0  00000+0 0  9991
2 33153   2.7067  80.3870 0003235  60.3250 198.6523  0.99035395 65675
GALAXY 19 (G-19)        
1 33376U 08045A   26166.81008394 -.00000138  00000+0  00000+0 0  9994
2 33376   0.0397 264.4371 0002413 182.8848  11.4027  1.00271275 64896
FM-5                    
1 35493U 09034A   26165.81425551 -.00000194  00000+0  00000+0 0  9994
2 35493   0.0205 292.4193 0001018  18.8658 158.8044  1.00269724 46628
INTELSAT 14 (IS-14)     
1 36097U 09064A   26166.82048398 -.00000272  00000+0  00000+0 0  9997
2 36097   0.0212 295.0936 0002257 140.5741  78.8126  1.00269245 60595
INTELSAT 15 (IS-15)     
1 36106U 09067A   26166.84625159 -.00000184  00000+0  00000+0 0  9991
2 36106   0.0160 303.5717 0002040 143.6529 206.6964  1.00270817 41214
DIRECTV 12              
1 36131U 09075A   26166.45252497 -.00000101  00000+0  00000+0 0  9995
2 36131   0.0233 154.0951 0000337 245.9985 283.8318  1.00272221 46532
INTELSAT 16 (IS-16)     
1 36397U 10006A   26166.81424396 -.00000243  00000+0  00000+0 0  9991
2 36397   0.0185 306.7967 0001916 158.8952  15.3218  1.00269322 59646
XM-5                    
1 37185U 10053A   26166.01642035 -.00000018  00000+0  00000+0 0  9993
2 37185   0.0647 273.1886 0002890 289.1857 311.6507  1.00271028 57463
INTELSAT 17 (IS-17)     
1 37238U 10065B   26166.74653850  .00000000  00000+0  00000+0 0  9992
2 37238   0.0085 286.8377 0002543 167.1937 144.7419  1.00271373 53234
INTELSAT 28 (IS-28)     
1 37392U 11016A   26166.82308399 -.00000225  00000+0  00000+0 0  9994
2 37392   1.8030  82.6363 0003588   6.3754  79.6845  1.00269936 53277
INTELSAT 18 (IS-18)     
1 37834U 11056A   26166.79370387  .00000054  00000+0  00000+0 0  9990
2 37834   0.0119 303.7527 0001549 139.0292 287.0213  1.00271203 53793
INTELSAT 22 (IS-22)     
1 38098U 12011A   26166.80973098 -.00000057  00000+0  00000+0 0  9999
2 38098   0.0193  61.9079 0001619  38.9402 166.8261  1.00272445  7178
INTELSAT 19 (IS-19)     
1 38356U 12030A   26166.79093052 -.00000055  00000+0  00000+0 0  9996
2 38356   0.0163 356.0892 0002811  97.0106 261.6997  1.00270894 50438
INTELSAT 20 (IS-20)     
1 38740U 12043A   26166.84289623 -.00000023  00000+0  00000+0 0  9999
2 38740   0.0027  62.9680 0001702 113.8302  99.2761  1.00270304 50738
